[{"OBJECT_NAME":"STARLINK-34032","OBJECT_ID":"2025-093T","EPOCH":"2026-03-09T08:38:30.483456","MEAN_MOTION":15.27612498,"ECCENTRICITY":0.00016929,"INCLINATION":43.0041,"RA_OF_ASC_NODE":79.5819,"ARG_OF_PERICENTER":279.4228,"MEAN_ANOMALY":80.6433,"EPHEMERIS_TYPE":0,"CLASSIFICATION_TYPE":"U","NORAD_CAT_ID":63853,"ELEMENT_SET_NO":999,"REV_AT_EPOCH":4792,"BSTAR":0.0013634646,"MEAN_MOTION_DOT":0.00037486,"MEAN_MOTION_DDOT":0},{"OBJECT_NAME":"TRANSPORTER-1 OBJECT Z","OBJECT_ID":"2021-006Z","EPOCH":"2026-03-09T22:55:57.522432","MEAN_MOTION":15.30965056,"ECCENTRICITY":0.00100878,"INCLINATION":97.2377,"RA_OF_ASC_NODE":113.4736,"ARG_OF_PERICENTER":179.6869,"MEAN_ANOMALY":180.438,"EPHEMERIS_TYPE":0,"CLASSIFICATION_TYPE":"U","NORAD_CAT_ID":47436,"ELEMENT_SET_NO":999,"REV_AT_EPOCH":28420,"BSTAR":0.00024088983,"MEAN_MOTION_DOT":7.143e-5,"MEAN_MOTION_DDOT":0}]
